[Satellite]
VERSION=1.1
NAME=RADUGA 2 [-]
NICKNAME=RADUGA 2 [-]
TLE1=1 09416U 76092A   17185.90188111 -.00000083  00000-0  00000-0 0  9997
TLE2=2 09416  11.0835 313.8573 0028393 299.6931  68.6596  1.00245568 96561
